{
  "norad_id": 56961,
  "name": "ICEYE-X26",
  "history": [
    {
      "epoch": "2026-03-28T21:07:36.396768Z",
      "apogee_km": 342.7889742579946,
      "perigee_km": 341.04310447836724,
      "latitude_deg": 9.518794669798823e-06,
      "longitude_deg": 102.02466372622521,
      "height_km": 345.86858399317225,
      "semi_major_axis_km": 6720.053039368181,
      "eccentricity": 0.0001299,
      "inclination_deg": 97.578,
      "raan_deg": 245.2207,
      "arg_perigee_deg": 205.043,
      "mean_anomaly_deg": 155.0772,
      "mean_motion_rev_day": 15.75954631
    }
  ]
}